{
  "links" : {
    "next" : "https://api.nasa.gov/neo/rest/v1/feed?start_date=2009-10-16&end_date=2009-10-16&detailed=true&api_key=t0TVs3DtDT2H8Oy2Zy8m2eVrNsAVKAexjcZXUckd",
    "prev" : "https://api.nasa.gov/neo/rest/v1/feed?start_date=2009-10-14&end_date=2009-10-14&detailed=true&api_key=t0TVs3DtDT2H8Oy2Zy8m2eVrNsAVKAexjcZXUckd",
    "self" : "https://api.nasa.gov/neo/rest/v1/feed?start_date=2009-10-15&end_date=2009-10-15&detailed=true&api_key=t0TVs3DtDT2H8Oy2Zy8m2eVrNsAVKAexjcZXUckd"
  },
  "element_count" : 15,
  "near_earth_objects" : {
    "2009-10-15" : [ {
      "links" : {
        "self" : "https://api.nasa.gov/neo/rest/v1/neo/3435023?api_key=t0TVs3DtDT2H8Oy2Zy8m2eVrNsAVKAexjcZXUckd"
      },
      "neo_reference_id" : "3435023",
      "name" : "(2008 UB95)",
      "nasa_jpl_url" : "http://ssd.jpl.nasa.gov/sbdb.cgi?sstr=3435023",
      "absolute_magnitude_h" : 24.7,
      "estimated_diameter" : {
        "kilometers" : {
          "estimated_diameter_min" : 0.0305179233,
          "estimated_diameter_max" : 0.0682401509
        },
        "meters" : {
          "estimated_diameter_min" : 30.5179232594,
          "estimated_diameter_max" : 68.2401509401
        },
        "miles" : {
          "estimated_diameter_min" : 0.0189629525,
          "estimated_diameter_max" : 0.0424024508
        },
        "feet" : {
          "estimated_diameter_min" : 100.1244233463,
          "estimated_diameter_max" : 223.8850168104
        }
      },
      "is_potentially_hazardous_asteroid" : false,
      "close_approach_data" : [ {
        "close_approach_date" : "2009-10-15",
        "epoch_date_close_approach" : 1255590000000,
        "relative_velocity" : {
          "kilometers_per_second" : "6.4650518933",
          "kilometers_per_hour" : "23274.1868160416",
          "miles_per_hour" : "14461.6745802232"
        },
        "miss_distance" : {
          "astronomical" : "0.0788929196",
          "lunar" : "30.6893444061",
          "kilometers" : "11802212",
          "miles" : "7333555"
        },
        "orbiting_body" : "Earth"
      } ],
      "orbital_data" : {
        "orbit_id" : "14",
        "orbit_determination_date" : "2017-04-06 09:02:22",
        "orbit_uncertainty" : "3",
        "minimum_orbit_intersection" : ".000342485",
        "jupiter_tisserand_invariant" : "6.096",
        "epoch_osculation" : "2458000.5",
        "eccentricity" : ".2686218243430999",
        "semi_major_axis" : ".98970127898704",
        "inclination" : "3.237150852302717",
        "ascending_node_longitude" : "21.96037649473319",
        "orbital_period" : "359.6289326988867",
        "perihelion_distance" : ".7238459158708419",
        "perihelion_argument" : "253.3344986362446",
        "aphelion_distance" : "1.255556642103238",
        "perihelion_time" : "2457916.204455168881",
        "mean_anomaly" : "84.38252148252931",
        "mean_motion" : "1.001031806029422",
        "equinox" : "J2000"
      }
    }, {
      "links" : {
        "self" : "https://api.nasa.gov/neo/rest/v1/neo/3458580?api_key=t0TVs3DtDT2H8Oy2Zy8m2eVrNsAVKAexjcZXUckd"
      },
      "neo_reference_id" : "3458580",
      "name" : "(2009 HV44)",
      "nasa_jpl_url" : "http://ssd.jpl.nasa.gov/sbdb.cgi?sstr=3458580",
      "absolute_magnitude_h" : 18.9,
      "estimated_diameter" : {
        "kilometers" : {
          "estimated_diameter_min" : 0.4411182,
          "estimated_diameter_max" : 0.9863702813
        },
        "meters" : {
          "estimated_diameter_min" : 441.1181999969,
          "estimated_diameter_max" : 986.3702813054
        },
        "miles" : {
          "estimated_diameter_min" : 0.2740980571,
          "estimated_diameter_max" : 0.6129018881
        },
        "feet" : {
          "estimated_diameter_min" : 1447.2382352778,
          "estimated_diameter_max" : 3236.1230737181
        }
      },
      "is_potentially_hazardous_asteroid" : false,
      "close_approach_data" : [ {
        "close_approach_date" : "2009-10-15",
        "epoch_date_close_approach" : 1255590000000,
        "relative_velocity" : {
          "kilometers_per_second" : "18.9533491505",
          "kilometers_per_hour" : "68232.0569419688",
          "miles_per_hour" : "42396.7467148584"
        },
        "miss_distance" : {
          "astronomical" : "0.4768724611",
          "lunar" : "185.5033874512",
          "kilometers" : "71339104",
          "miles" : "44328068"
        },
        "orbiting_body" : "Earth"
      } ],
      "orbital_data" : {
        "orbit_id" : "41",
        "orbit_determination_date" : "2017-04-06 09:00:42",
        "orbit_uncertainty" : "2",
        "minimum_orbit_intersection" : ".200704",
        "jupiter_tisserand_invariant" : "3.934",
        "epoch_osculation" : "2458000.5",
        "eccentricity" : ".4230344444121464",
        "semi_major_axis" : "1.664577936139684",
        "inclination" : "37.9905247187242",
        "ascending_node_longitude" : "217.1607007002011",
        "orbital_period" : "784.4307819921617",
        "perihelion_distance" : ".9604041337441153",
        "perihelion_argument" : "76.82581552125924",
        "aphelion_distance" : "2.368751738535252",
        "perihelion_time" : "2458154.439375319389",
        "mean_anomaly" : "289.3523706779602",
        "mean_motion" : ".4589315058311891",
        "equinox" : "J2000"
      }
    }, {
      "links" : {
        "self" : "https://api.nasa.gov/neo/rest/v1/neo/3467355?api_key=t0TVs3DtDT2H8Oy2Zy8m2eVrNsAVKAexjcZXUckd"
      },
      "neo_reference_id" : "3467355",
      "name" : "(2009 SW17)",
      "nasa_jpl_url" : "http://ssd.jpl.nasa.gov/sbdb.cgi?sstr=3467355",
      "absolute_magnitude_h" : 19.9,
      "estimated_diameter" : {
        "kilometers" : {
          "estimated_diameter_min" : 0.2783267681,
          "estimated_diameter_max" : 0.6223575734
        },
        "meters" : {
          "estimated_diameter_min" : 278.3267680719,
          "estimated_diameter_max" : 622.3575733667
        },
        "miles" : {
          "estimated_diameter_min" : 0.1729441822,
          "estimated_diameter_max" : 0.3867149477
        },
        "feet" : {
          "estimated_diameter_min" : 913.1455937611,
          "estimated_diameter_max" : 2041.8556210042
        }
      },
      "is_potentially_hazardous_asteroid" : true,
      "close_approach_data" : [ {
        "close_approach_date" : "2009-10-15",
        "epoch_date_close_approach" : 1255590000000,
        "relative_velocity" : {
          "kilometers_per_second" : "15.6098269784",
          "kilometers_per_hour" : "56195.3771223329",
          "miles_per_hour" : "34917.6219680407"
        },
        "miss_distance" : {
          "astronomical" : "0.0625699666",
          "lunar" : "24.339717865",
          "kilometers" : "9360334",
          "miles" : "5816242"
        },
        "orbiting_body" : "Earth"
      } ],
      "orbital_data" : {
        "orbit_id" : "21",
        "orbit_determination_date" : "2017-04-06 08:59:54",
        "orbit_uncertainty" : "2",
        "minimum_orbit_intersection" : ".0436879",
        "jupiter_tisserand_invariant" : "3.571",
        "epoch_osculation" : "2458000.5",
        "eccentricity" : ".5989646704764658",
        "semi_major_axis" : "2.01245993220535",
        "inclination" : "8.444357829868622",
        "ascending_node_longitude" : "42.75842788865356",
        "orbital_period" : "1042.771830134458",
        "perihelion_distance" : ".8070675320648816",
        "perihelion_argument" : "41.69644391368939",
        "aphelion_distance" : "3.217852332345818",
        "perihelion_time" : "2458289.120763999617",
        "mean_anomaly" : "260.3583794295016",
        "mean_motion" : ".3452337218906081",
        "equinox" : "J2000"
      }
    } ]
  }
}